{"version":0.6,
"generator":"Overpass API",
"osm3s":{"timestamp_osm_base":"2016-06-17T16:31:02Z","timestamp_areas_base":"2016-06-16T17:43:02Z","copyright":"The data included in this document is from www.openstreetmap.org. The data is made available under ODbL."},
"elements": [
{"type":"node","id":2468318665,"lat":42.2006509,"lon":13.6669693,"timestamp":"2013-09-22T23:07:16Z","version":1,"changeset":17982876,"user":"pikappa79","uid":330007,"tags":{"amenity":"place_of_worship","denomination":"catholic","religion":"christian","addr:city":"Acciano"}},
{"type":"node","id":903621337,"lat":42.17674,"lon":13.7109825,"timestamp":"2015-05-06T19:39:51Z","version":2,"changeset":30852998,"user":"Marco_T","uid":1227619,"tags":{"name":"Acciano","operator":"RFI","railway":"halt","wikipedia":"it:Stazione di Acciano","addr:city":"Acciano"}},
{"type":"node","id":3262431685,"lat":42.0634501,"lon":13.5838332,"timestamp":"2014-12-31T21:15:33Z","version":1,"changeset":27830822,"user":"Zeno Kugy","uid":1666292,"tags":{"amenity":"place_of_worship","addr:city":"Aielli"}},
{"type":"node","id":1106074886,"lat":42.062107,"lon":13.5811622,"timestamp":"2015-05-06T19:39:51Z","version":3,"changeset":30852998,"user":"Marco_T","uid":1227619,"tags":{"name":"Aielli","operator":"RFI","railway":"halt","wikipedia":"it:Stazione di Aielli","addr:city":"Aielli"}},
{"type":"node","id":518429307,"lat":41.7356138,"lon":14.0358028,"timestamp":"2011-08-08T20:11:12Z","version":2,"changeset":8961290,"user":"niubii","uid":1987,"tags":{"amenity":"drinking_water","addr:city":"Alfedena"}},
{"type":"node","id":1391411364,"lat":41.7373058,"lon":14.0403852,"timestamp":"2011-08-08T20:10:20Z","version":1,"changeset":8961290,"user":"niubii","uid":1987,"tags":{"amenity":"fuel","addr:city":"Alfedena"}},
{"type":"node","id":736420295,"lat":41.7382038,"lon":14.0447151,"timestamp":"2015-05-03T22:18:04Z","version":5,"changeset":30761958,"user":"Marco_T","uid":1227619,"tags":{"name":"Alfedena-Scontrone","railway":"station","wikipedia":"it:Stazione di Alfedena-Scontrone","addr:city":"Alfedena"}},
{"type":"node","id":3350669808,"lat":41.7001743,"lon":13.9821578,"timestamp":"2015-02-14T20:44:53Z","version":1,"changeset":28850621,"user":"ualios","uid":1864682,"tags":{"information":"board","tourism":"information","addr:city":"Alfedena"}},
{"type":"node","id":3383593329,"lat":41.9832522,"lon":13.8135399,"timestamp":"2015-03-04T21:29:32Z","version":1,"changeset":29254082,"user":"effebi-sm","uid":2003084,"tags":{"amenity":"drinking_water","addr:city":"Anversa degli Abruzzi"}},
{"type":"node","id":3383602962,"lat":41.9827218,"lon":13.8141354,"timestamp":"2015-03-04T21:34:36Z","version":1,"changeset":29254200,"user":"effebi-sm","uid":2003084,"tags":{"amenity":"drinking_water","addr:city":"Anversa degli Abruzzi"}},
{"type":"node","id":3778419559,"lat":41.995464,"lon":13.8042497,"timestamp":"2015-10-08T16:27:51Z","version":1,"changeset":34514055,"user":"schneibva","uid":70145,"tags":{"amenity":"drinking_water","addr:city":"Anversa degli Abruzzi"}},
{"type":"node","id":3778474211,"lat":41.9829116,"lon":13.8141034,"timestamp":"2015-10-08T17:17:59Z","version":1,"changeset":34514785,"user":"schneibva","uid":70145,"tags":{"amenity":"pub","addr:city":"Anversa degli Abruzzi"}},
{"type":"node","id":3778440665,"lat":41.9941662,"lon":13.803563,"timestamp":"2015-10-08T17:21:36Z","version":2,"changeset":34515176,"user":"schneibva","uid":70145,"tags":{"amenity":"pub","addr:city":"Anversa degli Abruzzi"}},
{"type":"node","id":3778474210,"lat":41.9818416,"lon":13.815342,"timestamp":"2015-10-08T17:17:59Z","version":1,"changeset":34514785,"user":"schneibva","uid":70145,"tags":{"amenity":"parking","addr:city":"Anversa degli Abruzzi"}},
{"type":"node","id":3778419557,"lat":41.9953105,"lon":13.8045072,"timestamp":"2015-10-08T16:27:51Z","version":1,"changeset":34514055,"user":"schneibva","uid":70145,"tags":{"amenity":"parking","addr:city":"Anversa degli Abruzzi"}},
{"type":"node","id":3778419558,"lat":41.9955277,"lon":13.8042927,"timestamp":"2015-10-08T16:27:51Z","version":1,"changeset":34514055,"user":"schneibva","uid":70145,"tags":{"amenity":"parking","addr:city":"Anversa degli Abruzzi"}},
{"type":"node","id":3778451521,"lat":41.9940208,"lon":13.8062762,"timestamp":"2015-10-08T16:59:23Z","version":1,"changeset":34514785,"user":"schneibva","uid":70145,"tags":{"amenity":"parking","addr:city":"Anversa degli Abruzzi"}},
{"type":"node","id":1480905771,"lat":41.9831625,"lon":13.8138712,"timestamp":"2015-03-04T21:30:01Z","version":2,"changeset":29254089,"user":"effebi-sm","uid":2003084,"tags":{"amenity":"place_of_worship","denomination":"catholic","name":"Santa Maria ad Nieves","religion":"christian","addr:city":"Anversa degli Abruzzi"}},
{"type":"node","id":3778479712,"lat":41.9925789,"lon":13.8065664,"timestamp":"2015-10-08T17:25:07Z","version":1,"changeset":34515176,"user":"schneibva","uid":70145,"tags":{"amenity":"toilets","addr:city":"Anversa degli Abruzzi"}},
{"type":"node","id":3778475004,"lat":41.9829581,"lon":13.8141404,"timestamp":"2015-10-08T17:18:48Z","version":1,"changeset":34514785,"user":"schneibva","uid":70145,"tags":{"shop":"convenience","addr:city":"Anversa degli Abruzzi"}},
{"type":"node","id":3778477127,"lat":41.994145,"lon":13.8035145,"timestamp":"2015-10-08T17:21:56Z","version":1,"changeset":34515176,"user":"schneibva","uid":70145,"tags":{"shop":"convenience","addr:city":"Anversa degli Abruzzi"}},
{"type":"node","id":3778463436,"lat":41.9908113,"lon":13.8118282,"timestamp":"2015-10-08T17:12:15Z","version":1,"changeset":34514785,"user":"schneibva","uid":70145,"tags":{"tourism":"viewpoint","addr:city":"Anversa degli Abruzzi"}},
{"type":"node","id":3694767104,"lat":41.8495743,"lon":14.1655492,"timestamp":"2015-08-13T07:18:15Z","version":1,"changeset":33305718,"user":"baialard","uid":509754,"tags":{"amenity":"drinking_water","addr:city":"Ateleta"}},
{"type":"node","id":3694767869,"lat":41.8480758,"lon":14.1679149,"timestamp":"2015-08-13T07:18:33Z","version":1,"changeset":33305718,"user":"baialard","uid":509754,"tags":{"amenity":"drinking_water","addr:city":"Ateleta"}},
{"type":"node","id":1123597047,"lat":41.8437492,"lon":14.192847,"timestamp":"2011-01-27T17:39:39Z","version":1,"changeset":7105713,"user":"venerdi","uid":196617,"tags":{"amenity":"fuel","fuel:diesel":"yes","fuel:octane_95":"yes","addr:city":"Ateleta"}},
{"type":"node","id":1407365051,"lat":41.8545963,"lon":14.2030577,"timestamp":"2013-11-29T09:52:51Z","version":2,"changeset":19175206,"user":"SldrHartman","uid":64392,"tags":{"amenity":"police","name":"Carabinieri","operator":"Arma dei Carabinieri","addr:city":"Ateleta"}},
{"type":"node","id":1407365768,"lat":41.8529261,"lon":14.2002789,"timestamp":"2011-08-21T18:09:20Z","version":1,"changeset":9086520,"user":"baialard","uid":509754,"tags":{"amenity":"post_office","name":"Ufficio Postale","addr:city":"Ateleta"}},
{"type":"node","id":2713135501,"lat":41.8690063,"lon":14.1374623,"timestamp":"2014-03-11T20:55:33Z","version":1,"changeset":21052929,"user":"baialard","uid":509754,"tags":{"historic":"monument","name":"Croce di Carceres","addr:city":"Ateleta"}},
{"type":"node","id":1407332980,"lat":41.8693507,"lon":14.1373667,"timestamp":"2016-04-13T07:30:04Z","version":2,"changeset":38517553,"user":"geotracer","uid":2502790,"tags":{"historic":"ruins","name":"Castello di Carceres","addr:city":"Ateleta"}},
{"type":"node","id":1411275077,"lat":41.8535258,"lon":14.2016511,"timestamp":"2011-08-24T14:12:51Z","version":1,"changeset":9112918,"user":"baialard","uid":509754,"tags":{"leisure":"playground","name":"Parco Giochi","addr:city":"Ateleta"}},
{"type":"node","id":1411275952,"lat":41.8525429,"lon":14.2003315,"timestamp":"2011-08-24T14:13:48Z","version":1,"changeset":9112918,"user":"baialard","uid":509754,"tags":{"railway":"station","addr:city":"Ateleta"}},
{"type":"node","id":2713143462,"lat":41.8656627,"lon":14.1336181,"timestamp":"2016-04-13T15:51:38Z","version":3,"changeset":38529743,"user":"geotracer","uid":2502790,"tags":{"name":"Case della Madonna","operator":"Corpo Forestale dello Stato Castel di Sangro","tourism":"alpine_hut","addr:city":"Ateleta"}},
{"type":"node","id":1407331628,"lat":41.88549,"lon":14.1360147,"timestamp":"2016-04-10T11:57:58Z","version":3,"changeset":38448933,"user":"geotracer","uid":2502790,"tags":{"name":"Rifugio Il Riposo","tourism":"alpine_hut","addr:city":"Ateleta"}},
{"type":"node","id":1407330867,"lat":41.8811635,"lon":14.1604853,"timestamp":"2016-04-10T12:30:14Z","version":3,"changeset":38449512,"user":"geotracer","uid":2502790,"tags":{"name":"Rifugio Accio di Cotica","tourism":"alpine_hut","addr:city":"Ateleta"}},
{"type":"node","id":3694768619,"lat":41.8540816,"lon":14.2015766,"timestamp":"2015-08-13T07:24:47Z","version":1,"changeset":33305718,"user":"baialard","uid":509754,"tags":{"name":"Museo Civiltà Contadina","tourism":"museum","addr:city":"Ateleta"}},
{"type":"node","id":1407323521,"lat":41.8781311,"lon":14.1587271,"timestamp":"2016-04-12T12:39:34Z","version":5,"changeset":38499121,"user":"geotracer","uid":2502790,"tags":{"name":"La Posta","operator":"Comune di Ateleta","tourism":"picnic_site","addr:city":"Ateleta"}},
{"type":"node","id":1407361554,"lat":41.8630665,"lon":14.2117266,"timestamp":"2011-08-21T18:05:54Z","version":1,"changeset":9086520,"user":"baialard","uid":509754,"tags":{"name":"Area pic nic Il Cavaliere","tourism":"picnic_site","addr:city":"Ateleta"}},
{"type":"node","id":4112089793,"lat":41.8866022,"lon":14.1401086,"timestamp":"2016-04-10T18:31:25Z","version":1,"changeset":38457832,"user":"geotracer","uid":2502790,"tags":{"tourism":"viewpoint","addr:city":"Ateleta"}},
{"type":"node","id":4113068889,"lat":41.898323,"lon":14.1793471,"timestamp":"2016-06-05T19:18:09Z","version":4,"changeset":39823392,"user":"geotracer","uid":2502790,"tags":{"ele":"1500","name":"Area Faunistica del Cervo (ente Parco Naz. Majella)","tourism":"zoo","addr:city":"Ateleta"}},
{"type":"node","id":3676217388,"lat":42.034375,"lon":13.4242241,"timestamp":"2015-08-01T11:28:17Z","version":1,"changeset":33028754,"user":"Simon says","uid":1931846,"tags":{"amenity":"bar","name":"Oro Nero Cafè","addr:city":"Avezzano"}},
{"type":"node","id":3651178542,"lat":42.0401351,"lon":13.4247464,"timestamp":"2015-07-14T19:25:17Z","version":1,"changeset":32635999,"user":"Simon says","uid":1931846,"tags":{"amenity":"bar","name":"Barissimo","addr:city":"Avezzano"}},
{"type":"node","id":3736078748,"lat":42.0331973,"lon":13.4280008,"timestamp":"2015-09-09T13:46:29Z","version":1,"changeset":33909649,"user":"Simon says","uid":1931846,"tags":{"amenity":"cafe","name":"Bar Peppe","addr:city":"Avezzano"}},
{"type":"node","id":4022488973,"lat":42.0367798,"lon":13.4273197,"timestamp":"2016-02-23T19:45:35Z","version":1,"changeset":37397318,"user":"Simon says","uid":1931846,"tags":{"amenity":"cafe","name":"il Bignè","addr:city":"Avezzano"}},
{"type":"node","id":2351682496,"lat":42.042496,"lon":13.421767,"timestamp":"2013-06-18T22:35:45Z","version":1,"changeset":16610678,"user":"Bryce C Nesbitt","uid":355242,"tags":{"amenity":"drinking_water","description":"fontanella","source":"wetap.org","wetap:photo":"http:\/\/mdcwetap.atwebpages.com\/jpg.php?i=mdicosimo1334050932268.jpg","wetap:status":"broken","addr:city":"Avezzano"}},
{"type":"node","id":2424248704,"lat":42.0441472,"lon":13.4196901,"timestamp":"2013-08-19T15:23:15Z","version":1,"changeset":17412829,"user":"Max Di Cosimo","uid":586331,"tags":{"amenity":"drinking_water","addr:city":"Avezzano"}},
{"type":"node","id":2351682499,"lat":42.04643,"lon":13.419014,"timestamp":"2013-06-18T22:35:45Z","version":1,"changeset":16610678,"user":"Bryce C Nesbitt","uid":355242,"tags":{"amenity":"drinking_water","description":"fontanella pineta","source":"wetap.org","wetap:status":"working","addr:city":"Avezzano"}},
{"type":"node","id":3686855211,"lat":42.034405,"lon":13.4272933,"timestamp":"2015-08-08T13:07:19Z","version":1,"changeset":33200747,"user":"Simon says","uid":1931846,"tags":{"amenity":"ice_cream","addr:city":"Avezzano"}},
{"type":"node","id":3718490813,"lat":42.0346767,"lon":13.423663,"timestamp":"2015-08-28T12:24:02Z","version":1,"changeset":33642813,"user":"Simon says","uid":1931846,"tags":{"amenity":"ice_cream","addr:city":"Avezzano"}},
{"type":"node","id":3731366299,"lat":42.0354655,"lon":13.4257408,"timestamp":"2015-09-06T08:26:18Z","version":1,"changeset":33827750,"user":"Simon says","uid":1931846,"tags":{"amenity":"ice_cream","addr:city":"Avezzano"}},
{"type":"node","id":3084488672,"lat":41.9998937,"lon":13.432508,"timestamp":"2014-09-18T11:30:19Z","version":1,"changeset":25518501,"user":"Basstoelpel","uid":72235,"tags":{"amenity":"restaurant","name":"il Canestro","addr:city":"Avezzano"}},
{"type":"node","id":3731367694,"lat":42.0349517,"lon":13.4272477,"timestamp":"2015-09-06T08:26:26Z","version":1,"changeset":33827750,"user":"Simon says","uid":1931846,"tags":{"amenity":"restaurant","name":"Gusto","addr:city":"Avezzano"}},
{"type":"node","id":3645089945,"lat":42.0343404,"lon":13.4239143,"timestamp":"2016-04-11T21:12:32Z","version":4,"changeset":38485619,"user":"mcheckimport","uid":893327,"tags":{"addr:city":"Avezzano","addr:housenumber":"91","addr:street":"Via Francesco Crispi","amenity":"restaurant","capacity":"50","name":"La Cattedrale","phone":"+39 0863 25175","takeaway":"yes","myadd:city":"Avezzano"}},
{"type":"node","id":3718155765,"lat":42.0330572,"lon":13.4287568,"timestamp":"2015-08-28T07:58:30Z","version":1,"changeset":33637411,"user":"Simon says","uid":1931846,"tags":{"amenity":"restaurant","name":"Strabacco","addr:city":"Avezzano"}},
{"type":"node","id":3731364960,"lat":42.0333142,"lon":13.4297623,"timestamp":"2015-09-06T08:24:57Z","version":1,"changeset":33827750,"user":"Simon says","uid":1931846,"tags":{"amenity":"restaurant","name":"Il Grappino","addr:city":"Avezzano"}},
{"type":"node","id":3676281899,"lat":42.0358168,"lon":13.4287543,"timestamp":"2016-03-20T12:58:37Z","version":2,"changeset":37955145,"user":"Odiug","uid":7464,"tags":{"amenity":"restaurant","name":"Garibaldi Cafè","addr:city":"Avezzano"}},
{"type":"node","id":2562184034,"lat":42.0407701,"lon":13.4250845,"timestamp":"2013-12-02T22:39:08Z","version":1,"changeset":19242765,"user":"ALn_668","uid":717514,"tags":{"amenity":"bus_station","highway":"bus_stop","name":"Avezzano - via Cassinelli","addr:city":"Avezzano"}},
{"type":"node","id":3922092379,"lat":42.0209651,"lon":13.4307577,"timestamp":"2016-01-01T15:22:07Z","version":1,"changeset":36299621,"user":"Simon says","uid":1931846,"tags":{"amenity":"car_rental","name":"Sixt","addr:city":"Avezzano"}},
{"type":"node","id":3812347227,"lat":42.0312148,"lon":13.4278643,"timestamp":"2015-11-01T09:55:10Z","version":1,"changeset":35008044,"user":"Simon says","uid":1931846,"tags":{"amenity":"car_rental","name":"Sixt","addr:city":"Avezzano"}},
{"type":"node","id":4052423745,"lat":42.0250463,"lon":13.4313912,"timestamp":"2016-03-10T08:10:23Z","version":1,"changeset":37728143,"user":"Simon says","uid":1931846,"tags":{"addr:city":"Avezzano","addr:housenumber":"12","addr:postcode":"67051","addr:street":"Via Nuova","amenity":"car_rental","name":"Hertz","phone":"+39 0863 441961","phone_1":"+39 0863 423611","myadd:city":"Avezzano"}},
{"type":"node","id":1391435373,"lat":42.0127752,"lon":13.4176403,"timestamp":"2011-08-08T20:21:22Z","version":1,"changeset":8961410,"user":"niubii","uid":1987,"tags":{"amenity":"fuel","addr:city":"Avezzano"}},
{"type":"node","id":1391435375,"lat":42.0140607,"lon":13.4177654,"timestamp":"2011-08-08T20:21:22Z","version":1,"changeset":8961410,"user":"niubii","uid":1987,"tags":{"amenity":"fuel","brand":"Q8","addr:city":"Avezzano"}},
{"type":"node","id":3893141189,"lat":42.0192266,"lon":13.4446424,"timestamp":"2015-12-15T09:55:16Z","version":1,"changeset":35962989,"user":"Simon says","uid":1931846,"tags":{"addr:city":"Avezzano","addr:street":"Via Nuova","amenity":"fuel","name":"X-Fuel","myadd:city":"Avezzano"}},
{"type":"node","id":4092600287,"lat":42.0258816,"lon":13.4295705,"timestamp":"2016-04-02T14:08:59Z","version":1,"changeset":38249208,"user":"Simon says","uid":1931846,"tags":{"amenity":"fuel","addr:city":"Avezzano"}},
{"type":"node","id":2286018140,"lat":42.054014,"lon":13.4262185,"timestamp":"2013-04-29T19:33:02Z","version":1,"changeset":15911809,"user":"Ryoka90","uid":994138,"tags":{"amenity":"parking","addr:city":"Avezzano"}},
{"type":"node","id":2286018141,"lat":42.0536786,"lon":13.4251671,"timestamp":"2013-04-29T19:33:02Z","version":1,"changeset":15911809,"user":"Ryoka90","uid":994138,"tags":{"amenity":"parking","addr:city":"Avezzano"}},
{"type":"node","id":3812347226,"lat":42.0311952,"lon":13.4267813,"timestamp":"2015-11-01T09:55:10Z","version":1,"changeset":35008044,"user":"Simon says","uid":1931846,"tags":{"amenity":"atm","addr:city":"Avezzano"}},
{"type":"node","id":3676216742,"lat":42.0371979,"lon":13.4278394,"timestamp":"2015-08-01T11:24:35Z","version":1,"changeset":33028703,"user":"Simon says","uid":1931846,"tags":{"amenity":"atm","addr:city":"Avezzano"}},
{"type":"node","id":3676215237,"lat":42.0357833,"lon":13.425786,"timestamp":"2015-08-01T11:26:04Z","version":1,"changeset":33028718,"user":"Simon says","uid":1931846,"tags":{"amenity":"atm","addr:city":"Avezzano"}},
{"type":"node","id":3676215238,"lat":42.0346413,"lon":13.4231087,"timestamp":"2015-08-01T11:26:04Z","version":1,"changeset":33028718,"user":"Simon says","uid":1931846,"tags":{"amenity":"atm","addr:city":"Avezzano"}},
{"type":"node","id":3679253936,"lat":42.0328776,"lon":13.4266306,"timestamp":"2015-08-03T17:39:29Z","version":1,"changeset":33076627,"user":"Simon says","uid":1931846,"tags":{"amenity":"atm","addr:city":"Avezzano"}},
{"type":"node","id":3715416445,"lat":42.0332414,"lon":13.4264927,"timestamp":"2015-08-26T14:48:58Z","version":1,"changeset":33598274,"user":"Simon says","uid":1931846,"tags":{"amenity":"atm","addr:city":"Avezzano"}},
{"type":"node","id":3731365522,"lat":42.0348481,"lon":13.428556,"timestamp":"2015-09-06T08:25:43Z","version":1,"changeset":33827750,"user":"Simon says","uid":1931846,"tags":{"amenity":"atm","addr:city":"Avezzano"}},
{"type":"node","id":3679254025,"lat":42.0392738,"lon":13.4262931,"timestamp":"2015-08-03T17:39:35Z","version":1,"changeset":33076629,"user":"Simon says","uid":1931846,"tags":{"amenity":"atm","addr:city":"Avezzano"}},
{"type":"node","id":3676216743,"lat":42.038797,"lon":13.4276513,"timestamp":"2015-09-07T08:31:06Z","version":2,"changeset":33850431,"user":"Simon says","uid":1931846,"tags":{"amenity":"atm","addr:city":"Avezzano"}},
{"type":"node","id":2537895992,"lat":42.0297538,"lon":13.4247201,"timestamp":"2013-11-18T13:17:12Z","version":1,"changeset":18971554,"user":"Zeno Kugy","uid":1666292,"tags":{"amenity":"fountain","addr:city":"Avezzano"}},
{"type":"node","id":2537894070,"lat":42.0352893,"lon":13.426269,"timestamp":"2013-11-18T13:15:25Z","version":1,"changeset":18971554,"user":"Zeno Kugy","uid":1666292,"tags":{"amenity":"fountain","addr:city":"Avezzano"}},
{"type":"node","id":2806146638,"lat":42.0336204,"lon":13.4300043,"timestamp":"2016-01-19T09:15:54Z","version":4,"changeset":36674934,"user":"bvivi","uid":124550,"tags":{"amenity":"fountain","name":"fontana luminosa","addr:city":"Avezzano"}},
{"type":"node","id":3028561256,"lat":42.0389781,"lon":13.4271025,"timestamp":"2014-08-19T21:23:11Z","version":1,"changeset":24870888,"user":"Francois555","uid":2037651,"tags":{"amenity":"fountain","addr:city":"Avezzano"}},
{"type":"node","id":3028561257,"lat":42.0388267,"lon":13.4266036,"timestamp":"2014-08-19T21:23:11Z","version":1,"changeset":24870888,"user":"Francois555","uid":2037651,"tags":{"amenity":"fountain","addr:city":"Avezzano"}},
{"type":"node","id":1343393650,"lat":42.0229442,"lon":13.4005802,"timestamp":"2016-04-28T05:38:49Z","version":4,"changeset":38941745,"user":"Croce Domenico","uid":3069431,"tags":{"addr:city":"Avezzano","addr:housenumber":"1","addr:street":"via Pietraquaria","amenity":"place_of_worship","denomination":"catholic","name":"Santuario Madonna di Pietraquaria","religion":"christian","myadd:city":"Avezzano"}},
{"type":"node","id":2806066475,"lat":42.0344167,"lon":13.4251889,"timestamp":"2014-04-22T09:02:58Z","version":2,"changeset":21857466,"user":"mcheckimport","uid":893327,"tags":{"amenity":"police","name":"Carabinieri","phone":"+39 112","addr:city":"Avezzano"}},
{"type":"node","id":3946861797,"lat":42.0312325,"lon":13.4311374,"timestamp":"2016-01-14T23:21:13Z","version":1,"changeset":36582720,"user":"Simon says","uid":1931846,"tags":{"amenity":"post_box","addr:city":"Avezzano"}},
{"type":"node","id":3950643798,"lat":42.0259791,"lon":13.4293852,"timestamp":"2016-01-16T21:15:00Z","version":1,"changeset":36624013,"user":"Simon says","uid":1931846,"tags":{"amenity":"post_box","addr:city":"Avezzano"}},
{"type":"node","id":3676216741,"lat":42.03691,"lon":13.4279778,"timestamp":"2015-08-01T11:24:35Z","version":1,"changeset":33028703,"user":"Simon says","uid":1931846,"tags":{"amenity":"post_box","addr:city":"Avezzano"}},
{"type":"node","id":3812347225,"lat":42.0329118,"lon":13.4267719,"timestamp":"2015-11-01T09:55:10Z","version":1,"changeset":35008044,"user":"Simon says","uid":1931846,"tags":{"amenity":"post_box","addr:city":"Avezzano"}},
{"type":"node","id":4015094289,"lat":42.0358107,"lon":13.4269409,"timestamp":"2016-02-19T18:22:50Z","version":1,"changeset":37314311,"user":"Simon says","uid":1931846,"tags":{"amenity":"post_box","addr:city":"Avezzano"}},
{"type":"node","id":2806047735,"lat":42.0329373,"lon":13.4266788,"timestamp":"2014-04-21T12:57:02Z","version":1,"changeset":21837293,"user":"OSMmac","uid":2040788,"tags":{"amenity":"post_office","name":"PosteItaliane","addr:city":"Avezzano"}},
{"type":"node","id":3647936630,"lat":42.0366012,"lon":13.4240483,"timestamp":"2015-07-21T18:26:55Z","version":2,"changeset":32784680,"user":"Simon says","uid":1931846,"tags":{"craft":"shoemaker","name":"Calzoleria Tonino","shop":"shoes","addr:city":"Avezzano"}},
{"type":"node","id":1105980876,"lat":41.9933088,"lon":13.4500019,"timestamp":"2011-01-16T10:58:54Z","version":1,"changeset":6986030,"user":"venerdi","uid":196617,"tags":{"historic":"monument","name":"Incile del Fucino","addr:city":"Avezzano"}},
{"type":"node","id":2679890731,"lat":41.9890613,"lon":13.4351175,"timestamp":"2014-02-19T04:41:42Z","version":1,"changeset":20649506,"user":"jabecker","uid":944876,"tags":{"historic":"ruins","name":"Cunicoli di Claudio","wikipedia":"it:Avezzano","addr:city":"Avezzano"}},
{"type":"node","id":3726308231,"lat":42.0403215,"lon":13.4229234,"timestamp":"2016-04-03T14:25:18Z","version":2,"changeset":38267982,"user":"Simon says","uid":1931846,"tags":{"addr:housenumber":"1","addr:street":"Via Nazario Sauro","leisure":"sports_centre","leisure_1":"fitness_centre","name":"Harmony Wellness Club","sport":"fitness","addr:city":"Avezzano"}},
{"type":"node","id":2537888992,"lat":42.0387035,"lon":13.3943934,"timestamp":"2013-12-21T13:23:02Z","version":2,"changeset":19565980,"user":"Markus59","uid":39457,"tags":{"man_made":"tower","tower:type":"communication","addr:city":"Avezzano"}},
{"type":"node","id":2054777423,"lat":42.0425872,"lon":13.4111045,"timestamp":"2012-12-07T17:29:35Z","version":1,"changeset":14190689,"user":"venerdi","uid":196617,"tags":{"man_made":"tower","tower:type":"communication","addr:city":"Avezzano"}},
{"type":"node","id":772444535,"lat":42.0395619,"lon":13.4265006,"timestamp":"2015-05-06T19:39:51Z","version":5,"changeset":30852998,"user":"Marco_T","uid":1227619,"tags":{"name":"Avezzano","operator":"RFI","public_transport":"station","railway":"station","wikipedia":"it:Stazione di Avezzano","addr:city":"Avezzano"}},
{"type":"node","id":772444535,"lat":42.0395619,"lon":13.4265006,"timestamp":"2015-05-06T19:39:51Z","version":5,"changeset":30852998,"user":"Marco_T","uid":1227619,"tags":{"name":"Avezzano","operator":"RFI","public_transport":"station","railway":"station","wikipedia":"it:Stazione di Avezzano","addr:city":"Avezzano"}},
{"type":"node","id":287993885,"lat":42.0459476,"lon":13.4075286,"timestamp":"2008-08-14T21:16:50Z","version":1,"changeset":246675,"user":"luigi","uid":12321,"tags":{"name":"I Marsi","shop":"supermarket","addr:city":"Avezzano"}},
{"type":"node","id":2806054935,"lat":42.031093,"lon":13.428984,"timestamp":"2014-04-21T12:58:34Z","version":1,"changeset":21837328,"user":"OSMmac","uid":2040788,"tags":{"name":"Coop","shop":"supermarket","addr:city":"Avezzano"}},
{"type":"node","id":3647936725,"lat":42.0379491,"lon":13.4234916,"timestamp":"2015-07-13T14:07:47Z","version":2,"changeset":32603807,"user":"Simon says","uid":1931846,"tags":{"name":"Conad","shop":"supermarket","addr:city":"Avezzano"}},
{"type":"node","id":3664816795,"lat":42.0347099,"lon":13.4235157,"timestamp":"2015-07-24T17:34:43Z","version":1,"changeset":32855475,"user":"Simon says","uid":1931846,"tags":{"name":"Tigre","shop":"supermarket","addr:city":"Avezzano"}},
{"type":"node","id":3731366298,"lat":42.0376698,"lon":13.4250547,"timestamp":"2015-09-06T08:26:11Z","version":1,"changeset":33827750,"user":"Simon says","uid":1931846,"tags":{"shop":"supermarket","addr:city":"Avezzano"}},
{"type":"node","id":3647933717,"lat":42.0405402,"lon":13.4229213,"timestamp":"2015-07-13T13:45:38Z","version":2,"changeset":32603243,"user":"Simon says","uid":1931846,"tags":{"name":"Tigre","shop":"supermarket","addr:city":"Avezzano"}},
{"type":"node","id":3647936726,"lat":42.0401387,"lon":13.42312,"timestamp":"2015-07-13T13:45:38Z","version":2,"changeset":32603243,"user":"Simon says","uid":1931846,"tags":{"name":"Eurospin","shop":"supermarket","addr:city":"Avezzano"}},
{"type":"node","id":3647936631,"lat":42.0399307,"lon":13.4232307,"timestamp":"2015-09-15T15:18:41Z","version":3,"changeset":34042935,"user":"Simon says","uid":1931846,"tags":{"name":"Acqua e Sapone","shop":"supermarket","addr:city":"Avezzano"}},
{"type":"node","id":3676281639,"lat":42.0387838,"lon":13.4399022,"timestamp":"2015-08-01T12:38:49Z","version":1,"changeset":33029727,"user":"Simon says","uid":1931846,"tags":{"name":"Lidl","shop":"supermarket","addr:city":"Avezzano"}},
{"type":"node","id":3647936630,"lat":42.0366012,"lon":13.4240483,"timestamp":"2015-07-21T18:26:55Z","version":2,"changeset":32784680,"user":"Simon says","uid":1931846,"tags":{"craft":"shoemaker","name":"Calzoleria Tonino","shop":"shoes","addr:city":"Avezzano"}},
{"type":"node","id":3676295620,"lat":42.0353465,"lon":13.4248864,"timestamp":"2015-08-01T12:58:09Z","version":1,"changeset":33030070,"user":"Simon says","uid":1931846,"tags":{"shop":"hairdresser","addr:city":"Avezzano"}},
{"type":"node","id":3731365507,"lat":42.0340022,"lon":13.4278803,"timestamp":"2015-09-06T08:25:30Z","version":1,"changeset":33827750,"user":"Simon says","uid":1931846,"tags":{"shop":"hairdresser","addr:city":"Avezzano"}},
{"type":"node","id":3679254026,"lat":42.0366476,"lon":13.4247859,"timestamp":"2016-02-23T19:37:38Z","version":2,"changeset":37397153,"user":"Simon says","uid":1931846,"tags":{"name":"Filiberto","shop":"hairdresser","addr:city":"Avezzano"}},
{"type":"node","id":3731365506,"lat":42.0334809,"lon":13.4292039,"timestamp":"2015-09-06T08:25:13Z","version":1,"changeset":33827750,"user":"Simon says","uid":1931846,"tags":{"name":"Electric Center","shop":"electronics","addr:city":"Avezzano"}},
{"type":"node","id":3651178541,"lat":42.0401808,"lon":13.4240276,"timestamp":"2016-04-03T14:26:27Z","version":2,"changeset":38268008,"user":"Simon says","uid":1931846,"tags":{"name":"Elletrica Pelino","shop":"electronics","addr:city":"Avezzano"}},
{"type":"node","id":4022486658,"lat":42.037044,"lon":13.4277096,"timestamp":"2016-02-23T19:44:07Z","version":1,"changeset":37397282,"user":"Simon says","uid":1931846,"tags":{"shop":"tobacco","shop_1":"lottery","addr:city":"Avezzano"}},
{"type":"node","id":2974815410,"lat":42.017491,"lon":13.4046783,"timestamp":"2014-07-22T19:44:46Z","version":1,"changeset":24299450,"user":"Alessandro Frigeri","uid":546,"tags":{"bicycle":"yes","ele":"900","hiking":"yes","information":"guidepost","mtb":"yes","name":"Valico Monte Salviano","tourism":"information","addr:city":"Avezzano"}},
{"type":"node","id":470340976,"lat":41.7929882,"lon":13.5745106,"timestamp":"2009-08-18T14:58:14Z","version":1,"changeset":2190318,"user":"francesco_bek","uid":76044,"tags":{"amenity":"drinking_water","addr:city":"Balsorano"}},
{"type":"node","id":1125248253,"lat":41.7753581,"lon":13.5964245,"timestamp":"2011-01-28T19:20:20Z","version":1,"changeset":7116012,"user":"venerdi","uid":196617,"tags":{"amenity":"fuel","fuel:diesel":"yes","fuel:octane_95":"yes","addr:city":"Balsorano"}},
{"type":"node","id":1535123553,"lat":41.8008836,"lon":13.5720902,"timestamp":"2011-12-07T10:44:59Z","version":1,"changeset":10056055,"user":"gmarchionni","uid":310942,"tags":{"amenity":"fountain","addr:city":"Balsorano"}},
{"type":"node","id":3725707161,"lat":41.7964911,"lon":13.5759015,"timestamp":"2016-03-20T12:58:37Z","version":2,"changeset":37955145,"user":"Odiug","uid":7464,"tags":{"amenity":"fountain","name":"Le Fonticelle","addr:city":"Balsorano"}},
{"type":"node","id":1125238873,"lat":41.7891543,"lon":13.5784606,"timestamp":"2015-10-27T21:50:31Z","version":2,"changeset":34914841,"user":"Marco_T","uid":1227619,"tags":{"name":"Ridotti-Collepiano","operator":"RFI","railway":"halt","wikipedia":"it:Stazione di Ridotti-Collepiano","addr:city":"Balsorano"}},
{"type":"node","id":3801552642,"lat":41.8094441,"lon":13.556564,"timestamp":"2015-10-27T21:50:31Z","version":2,"changeset":34914841,"user":"Marco_T","uid":1227619,"tags":{"name":"Balsorano","operator":"RFI","railway":"station","wikipedia":"it:Stazione di Balsorano","addr:city":"Balsorano"}},
{"type":"node","id":954682134,"lat":42.3562165,"lon":13.572091,"timestamp":"2010-10-17T14:33:27Z","version":1,"changeset":6067634,"user":"ivandm","uid":342654,"tags":{"amenity":"drinking_water","addr:city":"Barisciano"}},
{"type":"node","id":954682143,"lat":42.3379348,"lon":13.5831982,"timestamp":"2015-02-20T01:24:47Z","version":3,"changeset":28969331,"user":"VincenzoRicci","uid":2681814,"tags":{"amenity":"drinking_water","name":"Fonte Vedice","addr:city":"Barisciano"}},
{"type":"node","id":961867684,"lat":42.3516919,"lon":13.5867944,"timestamp":"2010-11-07T13:42:00Z","version":2,"changeset":6311334,"user":"ivandm","uid":342654,"tags":{"amenity":"drinking_water","addr:city":"Barisciano"}},
{"type":"node","id":961867874,"lat":42.3583557,"lon":13.5811993,"timestamp":"2010-11-07T13:42:27Z","version":2,"changeset":6311334,"user":"ivandm","uid":342654,"tags":{"amenity":"drinking_water","name":"F.te S.Angelo","addr:city":"Barisciano"}},
{"type":"node","id":980727911,"lat":42.3736325,"lon":13.6067236,"timestamp":"2016-05-26T01:14:17Z","version":2,"changeset":39569982,"user":"geotracer","uid":2502790,"tags":{"amenity":"drinking_water","name":"Fonte Chiusola","addr:city":"Barisciano"}},
{"type":"node","id":3360664608,"lat":42.335834,"lon":13.5906331,"timestamp":"2015-02-20T12:09:00Z","version":2,"changeset":28976026,"user":"VincenzoRicci","uid":2681814,"tags":{"amenity":"library","name":"Biblioteca San Colombo","addr:city":"Barisciano"}},
{"type":"node","id":3361564982,"lat":42.3358026,"lon":13.5908543,"timestamp":"2015-02-20T12:08:57Z","version":1,"changeset":28976026,"user":"VincenzoRicci","uid":2681814,"tags":{"amenity":"library","name":"Herbarium Apenninicum","addr:city":"Barisciano"}},
{"type":"node","id":3405437570,"lat":42.3410564,"lon":13.5151549,"timestamp":"2015-03-18T15:23:19Z","version":1,"changeset":29571662,"user":"VincenzoRicci","uid":2681814,"tags":{"addr:city":"Barisciano","amenity":"place_of_worship","name":"Chiesa San Valentino","religion":"christian","myadd:city":"Barisciano"}},
{"type":"node","id":3405437571,"lat":42.3410015,"lon":13.5154008,"timestamp":"2015-03-18T15:23:19Z","version":1,"changeset":29571662,"user":"VincenzoRicci","uid":2681814,"tags":{"addr:city":"Barisciano","leisure":"park","name":"Bosco San Valentino","myadd:city":"Barisciano"}},
{"type":"node","id":3360664607,"lat":42.335811,"lon":13.5907319,"timestamp":"2015-02-20T00:53:49Z","version":1,"changeset":28969091,"user":"VincenzoRicci","uid":2681814,"tags":{"name":"Museo del Fiore","tourism":"museum","addr:city":"Barisciano"}},
{"type":"node","id":3361594741,"lat":42.3364563,"lon":13.6027293,"timestamp":"2015-02-20T12:08:58Z","version":1,"changeset":28976026,"user":"VincenzoRicci","uid":2681814,"tags":{"tourism":"picnic_site","addr:city":"Barisciano"}},
{"type":"node","id":1688495161,"lat":41.82378,"lon":14.0096587,"timestamp":"2015-01-27T00:46:24Z","version":3,"changeset":28432932,"user":"dkwolf","uid":1771944,"tags":{"aerialway":"station","name":"Valle Verde 1","addr:city":"Barrea"}},
{"type":"node","id":2086378558,"lat":41.8178987,"lon":14.0126864,"timestamp":"2015-01-27T00:55:48Z","version":2,"changeset":28433027,"user":"dkwolf","uid":1771944,"tags":{"aerialway":"station","name":"Aremogna","addr:city":"Barrea"}},
{"type":"node","id":1270902972,"lat":41.8269907,"lon":14.0152657,"timestamp":"2015-01-27T00:45:48Z","version":3,"changeset":28432928,"user":"dkwolf","uid":1771944,"tags":{"aerialway":"station","name":"Valle Verde 2","addr:city":"Barrea"}},
{"type":"node","id":1688495169,"lat":41.8265978,"lon":14.0149821,"timestamp":"2015-01-27T00:46:24Z","version":3,"changeset":28432932,"user":"dkwolf","uid":1771944,"tags":{"aerialway":"station","name":"Valle Verde 1","addr:city":"Barrea"}},
{"type":"node","id":1270902971,"lat":41.8333842,"lon":14.0038851,"timestamp":"2015-01-27T00:45:48Z","version":3,"changeset":28432928,"user":"dkwolf","uid":1771944,"tags":{"aerialway":"station","name":"Valle Verde 2","addr:city":"Barrea"}},
{"type":"node","id":1094350134,"lat":41.8336008,"lon":14.0110187,"timestamp":"2014-08-12T14:18:38Z","version":2,"changeset":24702871,"user":"JFK73","uid":662440,"tags":{"aerialway":"station","addr:city":"Barrea"}},
{"type":"node","id":1688701206,"lat":41.8351101,"lon":14.0034602,"timestamp":"2014-08-12T14:18:40Z","version":2,"changeset":24702871,"user":"JFK73","uid":662440,"tags":{"aerialway":"station","addr:city":"Barrea"}},
{"type":"node","id":1094350505,"lat":41.8375834,"lon":14.002965,"timestamp":"2015-01-27T00:42:17Z","version":2,"changeset":28432896,"user":"dkwolf","uid":1771944,"tags":{"aerialway":"station","name":"Monte Pratello","addr:city":"Barrea"}},
{"type":"node","id":1688701035,"lat":41.835564,"lon":13.9995131,"timestamp":"2015-01-27T00:44:27Z","version":3,"changeset":28432915,"user":"dkwolf","uid":1771944,"tags":{"aerialway":"station","addr:city":"Barrea"}},
{"type":"node","id":518429677,"lat":41.7559241,"lon":13.9928217,"timestamp":"2010-06-09T17:51:07Z","version":2,"changeset":4947384,"user":"niubii","uid":1987,"tags":{"amenity":"bar","addr:city":"Barrea"}},
{"type":"node","id":3733299287,"lat":41.7583245,"lon":13.991953,"timestamp":"2015-09-07T15:59:25Z","version":1,"changeset":33859914,"user":"Benoit Friry","uid":510327,"tags":{"amenity":"drinking_water","addr:city":"Barrea"}},
{"type":"node","id":3733321970,"lat":41.7570887,"lon":13.9925747,"timestamp":"2015-09-07T16:17:26Z","version":1,"changeset":33860367,"user":"Benoit Friry","uid":510327,"tags":{"amenity":"drinking_water","addr:city":"Barrea"}},
{"type":"node","id":3733321967,"lat":41.7497187,"lon":13.9908443,"timestamp":"2015-09-07T16:17:26Z","version":1,"changeset":33860367,"user":"Benoit Friry","uid":510327,"tags":{"amenity":"parking","addr:city":"Barrea"}},
{"type":"node","id":3733298511,"lat":41.7522697,"lon":13.990254,"timestamp":"2015-09-07T15:59:24Z","version":1,"changeset":33859914,"user":"Benoit Friry","uid":510327,"tags":{"amenity":"parking","addr:city":"Barrea"}},
{"type":"node","id":518429679,"lat":41.75609,"lon":13.9926982,"timestamp":"2009-10-03T08:48:16Z","version":1,"changeset":2720383,"user":"niubii","uid":1987,"tags":{"amenity":"parking","parking":"surface","addr:city":"Barrea"}},
{"type":"node","id":768051199,"lat":41.7557435,"lon":13.9923874,"timestamp":"2010-06-09T17:50:35Z","version":1,"changeset":4947384,"user":"niubii","uid":1987,"tags":{"amenity":"parking","parking":"surface","addr:city":"Barrea"}},
{"type":"node","id":3733299330,"lat":41.7641271,"lon":13.9731739,"timestamp":"2015-09-07T15:59:26Z","version":1,"changeset":33859914,"user":"Benoit Friry","uid":510327,"tags":{"amenity":"parking","addr:city":"Barrea"}},
{"type":"node","id":3495664390,"lat":41.7563119,"lon":13.9928479,"timestamp":"2015-05-03T19:32:38Z","version":1,"changeset":30757716,"user":"df0rce","uid":1868963,"tags":{"addr:city":"Barrea","addr:housenumber":"30","addr:postcode":"67030","addr:street":"Via Roma","name":"MINI Market","operator":"Tarolla Amalia","phone":"+39 0864 88461","shop":"supermarket","myadd:city":"Barrea"}},
{"type":"node","id":1094418457,"lat":41.8378216,"lon":14.0026491,"timestamp":"2012-03-02T21:52:47Z","version":2,"changeset":10852817,"user":"scratera","uid":76312,"tags":{"name":"Esagono","tourism":"alpine_hut","addr:city":"Barrea"}},
{"type":"node","id":518429468,"lat":41.7408459,"lon":13.9963281,"timestamp":"2009-10-03T08:48:10Z","version":1,"changeset":2720383,"user":"niubii","uid":1987,"tags":{"description":"Cippo lapideo ingresso Parco Nazionale d'Abruzzo","name":"PNdA","tourism":"information","addr:city":"Barrea"}},
{"type":"node","id":518429680,"lat":41.7559546,"lon":13.9924517,"timestamp":"2009-10-03T10:00:11Z","version":2,"changeset":2721063,"user":"niubii","uid":1987,"tags":{"information":"board","name":"Panorama","tourism":"information","addr:city":"Barrea"}},
{"type":"node","id":518429675,"lat":41.75594,"lon":13.9924423,"timestamp":"2009-10-03T10:00:11Z","version":2,"changeset":2721063,"user":"niubii","uid":1987,"tags":{"name":"Belvedere","tourism":"viewpoint","addr:city":"Barrea"}},
{"type":"node","id":3733299312,"lat":41.758818,"lon":13.9909285,"timestamp":"2015-09-07T15:59:26Z","version":1,"changeset":33859914,"user":"Benoit Friry","uid":510327,"tags":{"tourism":"viewpoint","addr:city":"Barrea"}},
{"type":"node","id":3733299256,"lat":41.7571141,"lon":13.9923061,"timestamp":"2015-09-07T15:59:25Z","version":1,"changeset":33859914,"user":"Benoit Friry","uid":510327,"tags":{"tourism":"viewpoint","addr:city":"Barrea"}},
{"type":"node","id":3733299283,"lat":41.7582814,"lon":13.9923515,"timestamp":"2015-09-07T15:59:25Z","version":1,"changeset":33859914,"user":"Benoit Friry","uid":510327,"tags":{"tourism":"viewpoint","addr:city":"Barrea"}},
{"type":"node","id":639923360,"lat":41.91845,"lon":13.7585499,"timestamp":"2010-02-15T16:27:45Z","version":1,"changeset":3884529,"user":"glaucos","uid":113023,"tags":{"amenity":"drinking_water","addr:city":"Bisegna"}},
{"type":"node","id":1459752502,"lat":42.0174028,"lon":13.8357271,"timestamp":"2011-10-09T10:34:06Z","version":1,"changeset":9510501,"user":"mikelima","uid":12473,"tags":{"name":"Anversa-Villalago-Scanno","operator":"RFI","railway":"station","addr:city":"Bugnara"}},
{"type":"node","id":1107333143,"lat":42.0311798,"lon":13.862029,"timestamp":"2011-10-09T10:34:11Z","version":2,"changeset":9510501,"user":"mikelima","uid":12473,"tags":{"name":"Bugnara","operator":"RFI","railway":"station","addr:city":"Bugnara"}},
{"type":"node","id":4169816300,"lat":42.467432,"lon":13.2336191,"timestamp":"2016-05-06T14:42:43Z","version":1,"changeset":39145576,"user":"Renato Nicolai","uid":3926608,"tags":{"amenity":"drinking_water","name":"fonte Cagnano","addr:city":"Cagnano Amiterno"}},
{"type":"node","id":4169853690,"lat":42.4674648,"lon":13.2336447,"timestamp":"2016-05-06T14:42:39Z","version":1,"changeset":39145576,"user":"Renato Nicolai","uid":3926608,"tags":{"amenity":"drinking_water","name":" ","addr:city":"Cagnano Amiterno"}},
{"type":"node","id":4169853692,"lat":42.4658648,"lon":13.235532,"timestamp":"2016-05-06T14:42:44Z","version":1,"changeset":39145576,"user":"Renato Nicolai","uid":3926608,"tags":{"amenity":"drinking_water","name":"fonte Cagnano","addr:city":"Cagnano Amiterno"}},
{"type":"node","id":558349901,"lat":42.3255961,"lon":13.6967204,"timestamp":"2009-11-06T14:55:31Z","version":1,"changeset":3048856,"user":"MatthiasBJunker","uid":194397,"tags":{"amenity":"bar","name":"Bar Vittoria","addr:city":"Calascio"}},
{"type":"node","id":558349695,"lat":42.3260403,"lon":13.6983941,"timestamp":"2009-11-06T14:55:15Z","version":1,"changeset":3048856,"user":"MatthiasBJunker","uid":194397,"tags":{"amenity":"bar","name":"Nido del Falco","addr:city":"Calascio"}},
{"type":"node","id":1826391595,"lat":42.3740914,"lon":13.677069,"timestamp":"2012-07-15T13:43:37Z","version":1,"changeset":12229090,"user":"Nekdo","uid":41351,"tags":{"amenity":"drinking_water","source":"survey","addr:city":"Calascio"}},
{"type":"node","id":3024878682,"lat":42.3282207,"lon":13.6981017,"timestamp":"2014-08-18T16:01:57Z","version":1,"changeset":24836928,"user":"Diablos","uid":197651,"tags":{"amenity":"drinking_water","addr:city":"Calascio"}},
{"type":"node","id":1826359340,"lat":42.3977812,"lon":13.6841215,"timestamp":"2012-07-15T13:25:49Z","version":1,"changeset":12228769,"user":"Nekdo","uid":41351,"tags":{"amenity":"drinking_water","source":"survey","addr:city":"Calascio"}},
{"type":"node","id":558344261,"lat":42.3278582,"lon":13.6909389,"timestamp":"2013-07-31T12:07:07Z","version":4,"changeset":17165287,"user":"gspinoza","uid":562239,"tags":{"amenity":"restaurant","name":"Rifugio della Rocca","addr:city":"Calascio"}},
{"type":"node","id":558350225,"lat":42.327514,"lon":13.6994562,"timestamp":"2013-05-22T12:00:04Z","version":2,"changeset":16236801,"user":"spezimass","uid":235671,"tags":{"amenity":"restaurant","name":"Da Clara","addr:city":"Calascio"}},
{"type":"node","id":2402386686,"lat":42.3283072,"lon":13.6928485,"timestamp":"2013-07-31T12:07:07Z","version":1,"changeset":17165287,"user":"gspinoza","uid":562239,"tags":{"amenity":"parking","addr:city":"Calascio"}},
{"type":"node","id":2315770022,"lat":42.3256654,"lon":13.6971043,"timestamp":"2013-05-22T11:59:56Z","version":1,"changeset":16236801,"user":"spezimass","uid":235671,"tags":{"amenity":"fountain","addr:city":"Calascio"}},
{"type":"node","id":558350608,"lat":42.3263258,"lon":13.7011921,"timestamp":"2013-11-29T09:52:53Z","version":2,"changeset":19175206,"user":"SldrHartman","uid":64392,"tags":{"amenity":"police","name":"Carabinieri","operator":"Arma dei Carabinieri","addr:city":"Calascio"}},
{"type":"node","id":1843864950,"lat":42.3287464,"lon":13.6899056,"timestamp":"2014-08-18T16:01:57Z","version":3,"changeset":24836928,"user":"Diablos","uid":197651,"tags":{"historic":"ruins","addr:city":"Calascio"}},
{"type":"node","id":3024878683,"lat":42.3282732,"lon":13.6931518,"timestamp":"2014-08-18T16:01:57Z","version":1,"changeset":24836928,"user":"Diablos","uid":197651,"tags":{"historic":"ruins","addr:city":"Calascio"}},
{"type":"node","id":297029836,"lat":42.3282592,"lon":13.6978903,"timestamp":"2013-08-01T10:30:43Z","version":3,"changeset":17177688,"user":"gspinoza","uid":562239,"tags":{"ele":"1230","information":"guidepost","name":"Calascio","tourism":"information","addr:city":"Calascio"}},
{"type":"node","id":3024919045,"lat":42.3280416,"lon":13.7026286,"timestamp":"2014-08-18T16:19:02Z","version":1,"changeset":24837398,"user":"Diablos","uid":197651,"tags":{"tourism":"picnic_site","addr:city":"Calascio"}},
{"type":"node","id":3582336396,"lat":42.3111003,"lon":13.71848,"timestamp":"2015-06-09T05:05:58Z","version":2,"changeset":31833919,"user":"geotracer","uid":2502790,"tags":{"tourism":"viewpoint","addr:city":"Calascio"}},
{"type":"node","id":2403500056,"lat":42.3291306,"lon":13.687139,"timestamp":"2013-08-01T10:30:41Z","version":1,"changeset":17177688,"user":"gspinoza","uid":562239,"tags":{"tourism":"viewpoint","addr:city":"Calascio"}},
{"type":"node","id":277030630,"lat":41.9952236,"lon":14.0717732,"timestamp":"2014-08-11T13:55:15Z","version":2,"changeset":24678929,"user":"JFK73","uid":662440,"tags":{"aerialway":"station","addr:city":"Campo di Giove"}},
{"type":"node","id":277030628,"lat":41.9958949,"lon":14.0719544,"timestamp":"2015-01-26T03:19:05Z","version":3,"changeset":28409632,"user":"dkwolf","uid":1771944,"tags":{"aerialway":"station","name":"Le Piane","addr:city":"Campo di Giove"}},
{"type":"node","id":277030645,"lat":41.995934,"lon":14.0785963,"timestamp":"2014-08-11T13:55:15Z","version":2,"changeset":24678929,"user":"JFK73","uid":662440,"tags":{"aerialway":"station","addr:city":"Campo di Giove"}},
{"type":"node","id":1101703940,"lat":41.9984432,"lon":14.0893678,"timestamp":"2015-01-26T03:25:47Z","version":4,"changeset":28409693,"user":"dkwolf","uid":1771944,"tags":{"aerialway":"station","addr:city":"Campo di Giove"}},
{"type":"node","id":323179330,"lat":42.010838,"lon":14.0360411,"timestamp":"2010-04-28T23:46:25Z","version":3,"changeset":4554646,"user":"farlokko","uid":15891,"tags":{"amenity":"cafe","name":"Il Caminetto","addr:city":"Campo di Giove"}},
{"type":"node","id":307815140,"lat":42.0112319,"lon":14.043919,"timestamp":"2011-05-09T22:21:01Z","version":4,"changeset":8097643,"user":"farlokko","uid":15891,"tags":{"addr:housenumber":"12","amenity":"cafe","name":"Babilonia","addr:city":"Campo di Giove"}},
{"type":"node","id":661098429,"lat":42.0104505,"lon":14.0442317,"timestamp":"2011-05-09T22:21:05Z","version":2,"changeset":8097643,"user":"farlokko","uid":15891,"tags":{"amenity":"cafe","name":"Gnaff Bar","addr:city":"Campo di Giove"}},
{"type":"node","id":304887439,"lat":42.0111983,"lon":14.0446378,"timestamp":"2012-05-22T18:13:59Z","version":8,"changeset":11674163,"user":"farlokko","uid":15891,"tags":{"addr:housenumber":"78","addr:street":"Piazza Alessandro Duval","alt_name":"Bar Centrale di Paolo Ettore","amenity":"cafe","name":"Bar Centrale","addr:city":"Campo di Giove"}},
{"type":"node","id":699802588,"lat":42.0023447,"lon":14.0581108,"timestamp":"2011-05-10T10:42:47Z","version":2,"changeset":8101004,"user":"farlokko","uid":15891,"tags":{"amenity":"cafe","name":"L'asinello di Giove","addr:city":"Campo di Giove"}},
{"type":"node","id":659998507,"lat":42.0115383,"lon":14.0429241,"timestamp":"2010-05-09T19:11:09Z","version":2,"changeset":4652742,"user":"farlokko","uid":15891,"tags":{"amenity":"drinking_water","addr:city":"Campo di Giove"}},
{"type":"node","id":727728442,"lat":42.01119,"lon":14.0405702,"timestamp":"2010-05-16T08:45:55Z","version":2,"changeset":4714384,"user":"farlokko","uid":15891,"tags":{"amenity":"drinking_water","addr:city":"Campo di Giove"}},
{"type":"node","id":736132325,"lat":42.0083582,"lon":14.0427828,"timestamp":"2010-05-16T08:45:44Z","version":1,"changeset":4714384,"user":"farlokko","uid":15891,"tags":{"amenity":"drinking_water","addr:city":"Campo di Giove"}},
{"type":"node","id":659998540,"lat":42.0111277,"lon":14.0458503,"timestamp":"2010-05-09T19:19:47Z","version":2,"changeset":4652742,"user":"farlokko","uid":15891,"tags":{"amenity":"drinking_water","addr:city":"Campo di Giove"}},
{"type":"node","id":3712647097,"lat":42.0106319,"lon":14.0444865,"timestamp":"2015-08-24T20:49:41Z","version":1,"changeset":33557709,"user":"Commodore64","uid":47913,"tags":{"amenity":"drinking_water","addr:city":"Campo di Giove"}},
{"type":"node","id":3712647098,"lat":42.0107324,"lon":14.0496743,"timestamp":"2015-08-24T20:49:41Z","version":1,"changeset":33557709,"user":"Commodore64","uid":47913,"tags":{"amenity":"drinking_water","addr:city":"Campo di Giove"}},
{"type":"node","id":660520212,"lat":42.0119798,"lon":14.0435512,"timestamp":"2010-03-04T23:35:51Z","version":1,"changeset":4037493,"user":"farlokko","uid":15891,"tags":{"amenity":"drinking_water","addr:city":"Campo di Giove"}},
{"type":"node","id":661098477,"lat":42.011883,"lon":14.042975,"timestamp":"2010-05-09T19:11:10Z","version":2,"changeset":4652742,"user":"farlokko","uid":15891,"tags":{"amenity":"drinking_water","addr:city":"Campo di Giove"}},
{"type":"node","id":660520224,"lat":42.0121041,"lon":14.0449975,"timestamp":"2011-05-09T22:21:13Z","version":2,"changeset":8097643,"user":"farlokko","uid":15891,"tags":{"amenity":"drinking_water","addr:city":"Campo di Giove"}},
{"type":"node","id":661098462,"lat":42.0110699,"lon":14.0453917,"timestamp":"2010-05-09T19:19:48Z","version":2,"changeset":4652742,"user":"farlokko","uid":15891,"tags":{"addr:housenumber":"3","addr:postcode":"67030","addr:street":"Via San Rocco","amenity":"fast_food","cuisine":"pizza","name":"Mini Napoli","addr:city":"Campo di Giove"}},
{"type":"node","id":446735330,"lat":42.0107183,"lon":14.0442628,"timestamp":"2011-05-09T22:20:59Z","version":5,"changeset":8097643,"user":"farlokko","uid":15891,"tags":{"amenity":"pub","name":"Cutty Sark","addr:city":"Campo di Giove"}},
{"type":"node","id":304887963,"lat":42.0112259,"lon":14.043836,"timestamp":"2011-05-09T22:21:14Z","version":6,"changeset":8097643,"user":"farlokko","uid":15891,"tags":{"addr:housenumber":"11","amenity":"restaurant","name":"La Baita","addr:city":"Campo di Giove"}},
{"type":"node","id":290750443,"lat":42.0113518,"lon":14.0458791,"timestamp":"2011-05-09T22:21:16Z","version":6,"changeset":8097643,"user":"farlokko","uid":15891,"tags":{"addr:street":"Piazza Germano Del Mastro","amenity":"restaurant","name":"Locanda Camilla","tourism":"hotel","addr:city":"Campo di Giove"}},
{"type":"node","id":290750445,"lat":42.0107331,"lon":14.0459303,"timestamp":"2012-05-11T22:23:51Z","version":4,"changeset":11572232,"user":"farlokko","uid":15891,"tags":{"amenity":"restaurant","name":"Fiorildo","addr:city":"Campo di Giove"}},
{"type":"node","id":304887244,"lat":42.0109563,"lon":14.0359262,"timestamp":"2010-05-09T19:00:24Z","version":4,"changeset":4652742,"user":"farlokko","uid":15891,"tags":{"amenity":"fuel","brand":"IP","addr:city":"Campo di Giove"}},
{"type":"node","id":276916742,"lat":42.0111756,"lon":14.0460488,"timestamp":"2010-05-09T19:19:45Z","version":2,"changeset":4652742,"user":"farlokko","uid":15891,"tags":{"amenity":"parking","addr:city":"Campo di Giove"}},
{"type":"node","id":1278764541,"lat":41.9956314,"lon":14.0713264,"timestamp":"2011-05-09T22:44:48Z","version":1,"changeset":8097806,"user":"farlokko","uid":15891,"tags":{"amenity":"parking","parking":"surface","addr:city":"Campo di Giove"}},
{"type":"node","id":448980082,"lat":42.0105903,"lon":14.0441335,"timestamp":"2010-03-03T23:46:22Z","version":3,"changeset":4029569,"user":"farlokko","uid":15891,"tags":{"amenity":"pharmacy","dispensing":"yes","name":"Di Iorio","addr:city":"Campo di Giove"}},
{"type":"node","id":496094297,"lat":42.0101022,"lon":14.0319775,"timestamp":"2010-04-28T23:46:25Z","version":2,"changeset":4554646,"user":"farlokko","uid":15891,"tags":{"amenity":"fountain","addr:city":"Campo di Giove"}},
{"type":"node","id":415592520,"lat":42.0110824,"lon":14.0444827,"timestamp":"2010-03-18T20:14:48Z","version":3,"changeset":4164699,"user":"farlokko","uid":15891,"tags":{"amenity":"fountain","addr:city":"Campo di Giove"}},
{"type":"node","id":1278745096,"lat":42.0135993,"lon":14.0279771,"timestamp":"2011-05-09T22:20:46Z","version":1,"changeset":8097643,"user":"farlokko","uid":15891,"tags":{"amenity":"fountain","addr:city":"Campo di Giove"}},
{"type":"node","id":290836259,"lat":42.006387,"lon":14.0356575,"timestamp":"2010-05-09T23:30:25Z","version":2,"changeset":4655245,"user":"farlokko","uid":15891,"tags":{"amenity":"place_of_worship","denomination":"catholic","name":"Oasi di San Francesco","religion":"christian","addr:city":"Campo di Giove"}},
{"type":"node","id":289108597,"lat":42.0114446,"lon":14.0471884,"timestamp":"2012-05-11T22:23:50Z","version":5,"changeset":11572232,"user":"farlokko","uid":15891,"tags":{"amenity":"place_of_worship","denomination":"catholic","name":"San Eustachio","religion":"christian","addr:city":"Campo di Giove"}},
{"type":"node","id":802363599,"lat":42.0003886,"lon":14.079237,"timestamp":"2010-07-05T17:09:44Z","version":1,"changeset":5143684,"user":"Commodore64","uid":47913,"tags":{"amenity":"place_of_worship","denomination":"catholic","name":"Madonna di Coccia","religion":"christian","addr:city":"Campo di Giove"}},
{"type":"node","id":446735189,"lat":42.0116459,"lon":14.0475696,"timestamp":"2013-11-29T09:52:52Z","version":3,"changeset":19175206,"user":"SldrHartman","uid":64392,"tags":{"amenity":"police","name":"Carabinieri","operator":"Arma dei Carabinieri","addr:city":"Campo di Giove"}},
{"type":"node","id":668958851,"lat":42.0115023,"lon":14.045835,"timestamp":"2011-05-09T22:21:13Z","version":2,"changeset":8097643,"user":"farlokko","uid":15891,"tags":{"amenity":"post_box","addr:city":"Campo di Giove"}},
{"type":"node","id":290750441,"lat":42.0115725,"lon":14.0458103,"timestamp":"2011-05-09T22:21:08Z","version":4,"changeset":8097643,"user":"farlokko","uid":15891,"tags":{"addr:postcode":"67030","addr:street":"Via Ricciardi","amenity":"post_office","name":"Campo di Giove","addr:city":"Campo di Giove"}},
{"type":"node","id":497008502,"lat":42.0072055,"lon":14.0380129,"timestamp":"2010-05-09T19:02:17Z","version":2,"changeset":4652742,"user":"farlokko","uid":15891,"tags":{"amenity":"shelter","addr:city":"Campo di Giove"}},
{"type":"node","id":661105496,"lat":42.0105876,"lon":14.0326015,"timestamp":"2010-03-06T14:37:32Z","version":1,"changeset":4050747,"user":"farlokko","uid":15891,"tags":{"amenity":"toilets","addr:city":"Campo di Giove"}},
{"type":"node","id":659998535,"lat":42.0112573,"lon":14.0448874,"timestamp":"2010-05-09T19:19:42Z","version":2,"changeset":4652742,"user":"farlokko","uid":15891,"tags":{"historic":"memorial","addr:city":"Campo di Giove"}},
{"type":"node","id":497006967,"lat":42.0075882,"lon":14.0374819,"timestamp":"2010-05-09T19:00:23Z","version":3,"changeset":4652742,"user":"farlokko","uid":15891,"tags":{"leisure":"playground","addr:city":"Campo di Giove"}},
{"type":"node","id":3010357033,"lat":41.9954761,"lon":14.0716626,"timestamp":"2014-08-11T13:55:10Z","version":1,"changeset":24678929,"user":"JFK73","uid":662440,"tags":{"leisure":"sports_centre","name":"Campo di Giove","sport":"skiing","addr:city":"Campo di Giove"}},
{"type":"node","id":3750448188,"lat":42.0127072,"lon":14.03601,"timestamp":"2015-09-19T12:52:24Z","version":1,"changeset":34120378,"user":"Commodore64","uid":47913,"tags":{"communication":"yes","man_made":"tower","addr:city":"Campo di Giove"}},
{"type":"node","id":276988487,"lat":41.9932715,"lon":14.0690788,"timestamp":"2015-05-03T22:18:05Z","version":5,"changeset":30761958,"user":"Marco_T","uid":1227619,"tags":{"name":"Campo di Giove-Monte Maiella","railway":"halt","wikipedia":"it:Stazione di Campo di Giove Majella","addr:city":"Campo di Giove"}},
{"type":"node","id":262482577,"lat":42.0080356,"lon":14.0414919,"timestamp":"2015-11-23T20:08:25Z","version":4,"changeset":35537808,"user":"Ponossino","uid":1749393,"tags":{"name":"Campo di Giove","network":"RFI","railway":"station","wikipedia":"it:Stazione di Campo di Giove","addr:city":"Campo di Giove"}},
{"type":"node","id":446733189,"lat":42.0107551,"lon":14.0440869,"timestamp":"2012-05-22T18:13:59Z","version":7,"changeset":11674163,"user":"farlokko","uid":15891,"tags":{"addr:housenumber":"snc","addr:street":"Via Guglielmo Marconi","alt_name":"Forno di Antonio Antonetti","name":"Forno","shop":"bakery","addr:city":"Campo di Giove"}},
{"type":"node","id":661098448,"lat":42.0110242,"lon":14.044913,"timestamp":"2010-03-06T14:20:29Z","version":1,"changeset":4050637,"user":"farlokko","uid":15891,"tags":{"addr:housenumber":"36","shop":"butcher","addr:city":"Campo di Giove"}},
{"type":"node","id":661098473,"lat":42.0114231,"lon":14.0450589,"timestamp":"2011-05-09T22:21:03Z","version":2,"changeset":8097643,"user":"farlokko","uid":15891,"tags":{"shop":"butcher","addr:city":"Campo di Giove"}},
{"type":"node","id":661098444,"lat":42.0112262,"lon":14.0440175,"timestamp":"2011-05-09T22:21:01Z","version":2,"changeset":8097643,"user":"farlokko","uid":15891,"tags":{"addr:housenumber":"14","shop":"convenience","addr:city":"Campo di Giove"}},
{"type":"node","id":446733028,"lat":42.0107901,"lon":14.0444773,"timestamp":"2012-05-22T18:13:59Z","version":4,"changeset":11674163,"user":"farlokko","uid":15891,"tags":{"addr:housenumber":"22","addr:street":"Piazza Alessandro Duval","alt_name":"De Santis Silvia & C. s.n.c.","name":"Alimentari","shop":"convenience","addr:city":"Campo di Giove"}},
{"type":"node","id":661098451,"lat":42.0109344,"lon":14.0451825,"timestamp":"2010-05-09T19:19:48Z","version":2,"changeset":4652742,"user":"farlokko","uid":15891,"tags":{"name":"Bontà d'Abruzzo","shop":"convenience","addr:city":"Campo di Giove"}},
{"type":"node","id":661098461,"lat":42.0110919,"lon":14.0453246,"timestamp":"2010-05-09T19:19:46Z","version":2,"changeset":4652742,"user":"farlokko","uid":15891,"tags":{"addr:housenumber":"1","addr:postcode":"67030","addr:street":"Via San Rocco","name":"Mini Market","shop":"convenience","addr:city":"Campo di Giove"}},
{"type":"node","id":661098428,"lat":42.0106269,"lon":14.0441782,"timestamp":"2010-03-06T14:20:29Z","version":1,"changeset":4050637,"user":"farlokko","uid":15891,"tags":{"shop":"clothes","addr:city":"Campo di Giove"}},
{"type":"node","id":661098472,"lat":42.0113525,"lon":14.0451628,"timestamp":"2011-05-09T22:20:59Z","version":2,"changeset":8097643,"user":"farlokko","uid":15891,"tags":{"shop":"hairdresser","addr:city":"Campo di Giove"}},
{"type":"node","id":446733386,"lat":42.0108967,"lon":14.0442494,"timestamp":"2011-05-09T22:21:15Z","version":4,"changeset":8097643,"user":"farlokko","uid":15891,"tags":{"shop":"newsagent","addr:city":"Campo di Giove"}},
{"type":"node","id":497007960,"lat":42.0075005,"lon":14.0381953,"timestamp":"2010-05-09T19:02:16Z","version":2,"changeset":4652742,"user":"farlokko","uid":15891,"tags":{"tourism":"picnic_site","addr:city":"Campo di Giove"}},
{"type":"node","id":1278745411,"lat":42.0136891,"lon":14.0279771,"timestamp":"2011-05-09T22:20:51Z","version":1,"changeset":8097643,"user":"farlokko","uid":15891,"tags":{"tourism":"picnic_site","addr:city":"Campo di Giove"}},
{"type":"node","id":1279120960,"lat":42.0021873,"lon":14.0579143,"timestamp":"2011-05-10T10:45:04Z","version":1,"changeset":8101004,"user":"farlokko","uid":15891,"tags":{"tourism":"picnic_site","addr:city":"Campo di Giove"}},
{"type":"node","id":1760477394,"lat":42.0121313,"lon":14.0450726,"timestamp":"2012-05-20T23:09:06Z","version":1,"changeset":11657444,"user":"farlokko","uid":15891,"tags":{"tourism":"viewpoint","addr:city":"Campo di Giove"}},
{"type":"node","id":3175887066,"lat":42.5273761,"lon":13.3688835,"timestamp":"2014-11-09T01:20:27Z","version":1,"changeset":26655046,"user":"Daniel Galè","uid":2448389,"tags":{"addr:city":"Mascioni","addr:postcode":"67100","addr:street":"Strada Comunale Ponte delle Stecche","amenity":"bar","ele":"1340","name":"La Chioscheria","phone":"+39 328 691 1874","smoking":"yes","website":"www.facebook.com\/la.chioscheria","myadd:city":"Campotosto"}},
{"type":"node","id":2526286679,"lat":42.5593664,"lon":13.328267,"timestamp":"2013-11-10T11:10:03Z","version":1,"changeset":18814082,"user":"sgobbotron","uid":516250,"tags":{"amenity":"drinking_water","addr:city":"Campotosto"}},
{"type":"node","id":2924536905,"lat":42.5598196,"lon":13.327671,"timestamp":"2014-06-20T10:25:36Z","version":1,"changeset":23041137,"user":"bootes73","uid":1058027,"tags":{"amenity":"drinking_water","addr:city":"Campotosto"}},
{"type":"node","id":2924541846,"lat":42.5613091,"lon":13.3295018,"timestamp":"2014-06-20T10:36:47Z","version":1,"changeset":23041304,"user":"bootes73","uid":1058027,"tags":{"amenity":"drinking_water","addr:city":"Campotosto"}},
{"type":"node","id":2924536906,"lat":42.5637857,"lon":13.328283,"timestamp":"2014-06-20T10:25:37Z","version":1,"changeset":23041137,"user":"bootes73","uid":1058027,"tags":{"amenity":"drinking_water","addr:city":"Campotosto"}},
{"type":"node","id":3607110124,"lat":42.5584771,"lon":13.3690976,"timestamp":"2015-06-20T12:34:27Z","version":1,"changeset":32096208,"user":"horst","uid":4205,"tags":{"amenity":"restaurant","name":"Pizzeria del parco","addr:city":"Campotosto"}},
{"type":"node","id":1480905764,"lat":42.5574143,"lon":13.369568,"timestamp":"2011-10-26T06:23:24Z","version":1,"changeset":9657596,"user":"FischersFritz","uid":74900,"tags":{"amenity":"restaurant","cuisine":"regional","name":"Barilotto","addr:city":"Campotosto"}},
{"type":"node","id":3607110125,"lat":42.5585457,"lon":13.3688225,"timestamp":"2015-06-20T12:34:30Z","version":1,"changeset":32096208,"user":"horst","uid":4205,"tags":{"amenity":"fuel","name":"Agip","addr:city":"Campotosto"}},
{"type":"node","id":4218663791,"lat":42.527522,"lon":13.3689691,"timestamp":"2016-06-01T07:22:11Z","version":1,"changeset":39704133,"user":"geotracer","uid":2502790,"tags":{"amenity":"parking","addr:city":"Campotosto"}},
{"type":"node","id":2932391457,"lat":42.5661073,"lon":13.3163539,"timestamp":"2014-06-25T07:25:37Z","version":1,"changeset":23137075,"user":"bootes73","uid":1058027,"tags":{"amenity":"fountain","addr:city":"Campotosto"}},
{"type":"node","id":3472382821,"lat":42.53171,"lon":13.3724441,"timestamp":"2015-04-23T00:53:06Z","version":1,"changeset":30418690,"user":"Daniel Galè","uid":2448389,"tags":{"amenity":"place_of_worship","name":"Madonna di Pedicino","religion":"christian","addr:city":"Campotosto"}},
